NORAD_CAT_ID,OBJECT_NAME,OBJECT_TYPE,EPOCH,MEAN_MOTION,ECCENTRICITY,INCLINATION,RA_OF_ASC_NODE,ARG_OF_PERICENTER,MEAN_ANOMALY,BSTAR,MEAN_MOTION_DOT,MEAN_MOTION_DDOT,TLE_LINE0,TLE_LINE1,TLE_LINE2,SEMIMAJOR_AXIS,PERIOD,APOGEE,PERIGEE,DECAYED
49460.0,STARLINK-3140,PAYLOAD,2022-07-14 20:09:53,15.08833795,0.0002987,53.2162,87.0222,70.9298,289.2018,-8.447299999999999e-05,-1.633e-05,0.0,0 STARLINK-3140,1 49460U 21104BE  22195.84020784 -.00001633  00000-0 -84473-4 0  9998,2 49460  53.2162  87.0222 0002987  70.9298 289.2018 15.08833795 37409,6917.899,95.438,541.831,537.698,0.0
49460.0,STARLINK-3140,PAYLOAD,2022-07-15 02:31:26,15.0883994,0.0003002,53.2162,85.8338,63.37,296.76,4.155600000000001e-05,3.73e-06,0.0,0 STARLINK-3140,1 49460U 21104BE  22196.10516669  .00000373  00000-0  41556-4 0  9993,2 49460  53.2162  85.8338 0003002  63.3700 296.7600 15.08839940 38539,6917.880999999999,95.438,541.822,537.669,0.0
49460.0,STARLINK-3140,PAYLOAD,2022-07-15 21:36:03,15.08853267,0.0003068,53.2161,82.2651,71.7856,288.3469,0.00053047,8.168e-05,0.0,0 STARLINK-3140,1 49460U 21104BE  22196.90004523  .00008168  00000-0  53047-3 0  9999,2 49460  53.2161  82.2651 0003068  71.7856 288.3469 15.08853267 37564,6917.84,95.437,541.827,537.582,0.0
49460.0,STARLINK-3140,PAYLOAD,2022-07-16 02:22:13,15.08867341,0.0003106,53.2161,81.373,70.967,289.1658,0.00091288,0.00014282,0.0,0 STARLINK-3140,1 49460U 21104BE  22197.09876283  .00014282  00000-0  91288-3 0  9993,2 49460  53.2161  81.3730 0003106  70.9670 289.1658 15.08867341 38681,6917.797,95.436,541.81,537.513,0.0
49460.0,STARLINK-3140,PAYLOAD,2022-07-16 19:51:26,15.08855506,0.0002891,53.2161,78.1019,71.491,288.6396,6.207e-05,7.000000000000003e-06,0.0,0 STARLINK-3140,1 49460U 21104BE  22197.82739547  .00000700  00000-0  62070-4 0  9993,2 49460  53.2161  78.1019 0002891  71.4910 288.6396 15.08855506 38793,6917.833000000001,95.437,541.698,537.698,0.0
49460.0,STARLINK-3140,PAYLOAD,2022-07-16 21:26:50,15.08856133,0.0002894,53.2161,77.8046,71.8891,288.2416,0.0001249,1.701e-05,0.0,0 STARLINK-3140,1 49460U 21104BE  22197.89363494  .00001701  00000-0  12490-3 0  9996,2 49460  53.2161  77.8046 0002894  71.8891 288.2416 15.08856133 37711,6917.831,95.437,541.698,537.694,0.0
49460.0,STARLINK-3140,PAYLOAD,2022-07-17 08:34:31,15.08859451,0.0002874,53.2161,75.7231,73.2587,286.872,0.00040488,6.165e-05,0.0,0 STARLINK-3140,1 49460U 21104BE  22198.35731120  .00006165  00000-0  40488-3 0  9990,2 49460  53.2161  75.7231 0002874  73.2587 286.8720 15.08859451 37785,6917.821,95.436,541.674,537.698,0.0
49460.0,STARLINK-3140,PAYLOAD,2022-07-17 18:06:50,15.0884938,0.0002906,53.2166,73.9398,75.6809,284.4506,-8.8047e-05,-1.6899999999999994e-05,0.0,0 STARLINK-3140,1 49460U 21104BE  22198.75475094 -.00001690  00000-0 -88047-4 0  9993,2 49460  53.2166  73.9398 0002906  75.6809 284.4506 15.08849380 38937,6917.852,95.437,541.727,537.706,0.0
49460.0,STARLINK-3140,PAYLOAD,2022-07-17 19:42:13,15.08848023,0.0002961,53.2167,73.6423,75.5605,284.5716,-9.1478e-05,-1.745e-05,0.0,0 STARLINK-3140,1 49460U 21104BE  22198.82099225 -.00001745  00000-0 -91478-4 0  9992,2 49460  53.2167  73.6423 0002961  75.5605 284.5716 15.08848023 37855,6917.856,95.437,541.769,537.672,0.0
49460.0,STARLINK-3140,PAYLOAD,2022-07-18 02:03:46,15.08839798,0.0002866,53.2167,72.4522,71.0777,289.0525,-0.00018431,-3.221e-05,0.0,0 STARLINK-3140,1 49460U 21104BE  22199.08595559 -.00003221  00000-0 -18431-3 0  9990,2 49460  53.2167  72.4522 0002866  71.0777 289.0525 15.08839798 38989,6917.880999999999,95.438,541.729,537.763,0.0
49460.0,STARLINK-3140,PAYLOAD,2022-07-18 08:25:18,15.08841407,0.0002794,53.2164,71.2623,72.7051,287.4247,-0.00013479,-2.433e-05,0.0,0 STARLINK-3140,1 49460U 21104BE  22199.35091426 -.00002433  00000-0 -13479-3 0  9995,2 49460  53.2164  71.2623 0002794  72.7051 287.4247 15.08841407 37935,6917.876,95.437,541.674,537.808,0.0
49460.0,STARLINK-3140,PAYLOAD,2022-07-18 21:08:24,15.08832686,0.0002726,53.2165,68.8836,73.6881,286.4411,-5.0255e-05,-1.088e-05,0.0,0 STARLINK-3140,1 49460U 21104BE  22199.88084062 -.00001088  00000-0 -50255-4 0  9990,2 49460  53.2165  68.8836 0002726  73.6881 286.4411 15.08832686 38011,6917.903,95.438,541.654,537.882,0.0
49460.0,STARLINK-3140,PAYLOAD,2022-07-19 00:19:11,15.08823547,0.0003359,53.2164,68.2891,53.0416,307.0884,-0.00013989,-2.514e-05,0.0,0 STARLINK-3140,1 49460U 21104BE  22200.01332917 -.00002514  00000-0 -13989-3 0  9990,2 49460  53.2164  68.2891 0003359  53.0416 307.0884 15.08823547 39127,6917.931,95.439,542.119,537.472,0.0
49460.0,STARLINK-3140,PAYLOAD,2022-07-19 08:16:08,15.08804875,0.0002626,53.2166,66.8032,74.9068,285.2214,-0.00041885,-6.942e-05,0.0,0 STARLINK-3140,1 49460U 21104BE  22200.34454190 -.00006942  00000-0 -41885-3 0  9999,2 49460  53.2166  66.8032 0002626  74.9068 285.2214 15.08804875 39173,6917.988,95.44,541.669,538.036,0.0
49460.0,STARLINK-3140,PAYLOAD,2022-07-19 20:59:12,15.08837996,0.0002602,53.2165,64.4232,66.9683,293.1583,0.00020912,3.041e-05,0.0,0 STARLINK-3140,1 49460U 21104BE  22200.87445081  .00003041  00000-0  20912-3 0  9999,2 49460  53.2165  64.4232 0002602  66.9683 293.1583 15.08837996 39252,6917.887,95.438,541.552,537.951,0.0
49460.0,STARLINK-3140,PAYLOAD,2022-07-20 08:06:54,15.08853985,0.0002512,53.2162,62.3413,70.813,289.3134,0.00069045,0.00010722,0.0,0 STARLINK-3140,1 49460U 21104BE  22201.33812882  .00010722  00000-0  69045-3 0  9992,2 49460  53.2162  62.3413 0002512  70.8130 289.3134 15.08853985 38230,6917.8380000000025,95.437,541.44,537.965,0.0
49460.0,STARLINK-3140,PAYLOAD,2022-07-20 20:49:59,15.08861034,0.0002438,53.216,59.9621,70.1603,289.9652,0.00061772,9.562e-05,0.0,0 STARLINK-3140,1 49460U 21104BE  22201.86804542  .00009562  00000-0  61772-3 0  9993,2 49460  53.2160  59.9621 0002438  70.1603 289.9652 15.08861034 38310,6917.816,95.436,541.368,537.995,0.0
49460.0,STARLINK-3140,PAYLOAD,2022-07-21 01:36:08,15.08864433,0.0002387,53.2158,59.0701,69.5365,290.5883,0.00036534,5.535e-05,0.0,0 STARLINK-3140,1 49460U 21104BE  22202.06676122  .00005535  00000-0  36534-3 0  9991,2 49460  53.2158  59.0701 0002387  69.5365 290.5883 15.08864433 39431,6917.806,95.436,541.322,538.019,0.0
49460.0,STARLINK-3140,PAYLOAD,2022-07-21 07:57:40,15.08845859,0.0002428,53.2159,57.8799,70.8752,289.2503,-0.00020233,-3.508e-05,0.0,0 STARLINK-3140,1 49460U 21104BE  22202.33172314 -.00003508  00000-0 -20233-3 0  9994,2 49460  53.2159  57.8799 0002428  70.8752 289.2503 15.08845859 39475,6917.861999999999,95.437,541.4069999999998,538.048,0.0
49460.0,STARLINK-3140,PAYLOAD,2022-07-21 20:40:46,15.08835863,0.0002314,53.2163,55.5017,71.2114,288.9129,-0.00017577,-3.084e-05,0.0,0 STARLINK-3140,1 49460U 21104BE  22202.86164757 -.00003084  00000-0 -17577-3 0  9990,2 49460  53.2163  55.5017 0002314  71.2114 288.9129 15.08835863 38461,6917.893,95.438,541.359,538.1569999999998,0.0
49460.0,STARLINK-3140,PAYLOAD,2022-07-21 23:51:32,15.08836773,0.0002251,53.2167,54.9071,72.0125,288.1112,-3.386e-05,-8.27e-06,0.0,0 STARLINK-3140,1 49460U 21104BE  22202.99412790 -.00000827  00000-0 -33860-4 0  9993,2 49460  53.2167  54.9071 0002251  72.0125 288.1112 15.08836773 39577,6917.89,95.438,541.312,538.198,0.0
49460.0,STARLINK-3140,PAYLOAD,2022-07-22 20:31:33,15.08851298,0.0002245,53.2168,51.0414,69.7145,290.4088,0.00044307,6.773e-05,0.0,0 STARLINK-3140,1 49460U 21104BE  22203.85524617  .00006773  00000-0  44307-3 0  9992,2 49460  53.2168  51.0414 0002245  69.7145 290.4088 15.08851298 38616,6917.846,95.437,541.264,538.158,0.0
49460.0,STARLINK-3140,PAYLOAD,2022-07-22 23:42:19,15.08854212,0.0002265,53.2169,50.4468,70.2233,289.9003,0.0005377,8.283e-05,0.0,0 STARLINK-3140,1 49460U 21104BE  22203.98772545  .00008283  00000-0  53770-3 0  9993,2 49460  53.2169  50.4468 0002265  70.2233 289.9003 15.08854212 39728,6917.837,95.437,541.269,538.135,0.0
49460.0,STARLINK-3140,PAYLOAD,2022-07-23 20:22:20,15.08837254,0.000207,53.2169,46.5801,65.9557,294.1652,5.445299999999999e-06,-2.02e-06,0.0,0 STARLINK-3140,1 49460U 21104BE  22204.84884854 -.00000202  00000-0  54453-5 0  9991,2 49460  53.2169  46.5801 0002070  65.9557 294.1652 15.08837254 39858,6917.889,95.438,541.186,538.322,0.0
49460.0,STARLINK-3140,PAYLOAD,2022-07-24 05:54:39,15.08834908,0.0002,53.2169,44.7964,65.8232,294.2969,4.1334e-05,3.700000000000001e-06,0.0,0 STARLINK-3140,1 49460U 21104BE  22205.24629094  .00000370  00000-0  41334-4 0  9997,2 49460  53.2169  44.7964 0002000  65.8232 294.2969 15.08834908 38821,6917.896,95.438,541.145,538.377,0.0
49460.0,STARLINK-3140,PAYLOAD,2022-07-24 20:13:07,15.08837933,0.0001958,53.2174,42.1201,66.7199,293.4,7.678100000000001e-05,9.34e-06,0.0,0 STARLINK-3140,1 49460U 21104BE  22205.84245022  .00000934  00000-0  76781-4 0  9998,2 49460  53.2174  42.1201 0001958  66.7199 293.4000 15.08837933 38914,6917.887,95.438,541.106,538.3969999999998,0.0
49460.0,STARLINK-3140,PAYLOAD,2022-07-25 00:59:16,15.08844036,0.0001929,53.2175,41.2279,65.5743,294.545,2.7567e-05,1.51e-06,0.0,0 STARLINK-3140,1 49460U 21104BE  22206.04116633  .00000151  00000-0  27567-4 0  9995,2 49460  53.2175  41.2279 0001929  65.5743 294.5450 15.08844036 40039,6917.868,95.437,541.068,538.399,0.0
49460.0,STARLINK-3140,PAYLOAD,2022-07-25 05:45:26,15.08845663,0.0001932,53.2175,40.3359,65.5809,294.5385,3.942e-05,3.39e-06,0.0,0 STARLINK-3140,1 49460U 21104BE  22206.23988463  .00000339  00000-0  39420-4 0  9993,2 49460  53.2175  40.3359 0001932  65.5809 294.5385 15.08845663 38979,6917.863,95.437,541.065,538.3919999999998,0.0
49460.0,STARLINK-3140,PAYLOAD,2022-07-25 20:03:55,15.08828676,0.0001861,53.2174,37.6593,67.3915,292.7274,6.4567e-05,7.39e-06,0.0,0 STARLINK-3140,1 49460U 21104BE  22206.83605356  .00000739  00000-0  64567-4 0  9990,2 49460  53.2174  37.6593 0001861  67.3915 292.7274 15.08828676 39069,6917.915,95.438,541.067,538.493,0.0
